<?xml version='1.0' encoding='utf-8'?>
<q:quakeml xmlns="http://quakeml.org/xmlns/bed/1.2" xmlns:q="http://quakeml.org/xmlns/quakeml/1.2">
  <eventParameters publicID="smi:local/864a3740-8bf3-416a-a321-f91242125094">
    <event publicID="smi:local/119a64be-7e2c-4114-94cd-5f615ff98f30">
      <origin publicID="smi:local/93edc8c5-775d-4d12-a732-d1bb7adc5ce5">
        <time>
          <value>2025-02-03T00:01:13.612287Z</value>
        </time>
        <latitude>
          <value>36.611336203934044</value>
        </latitude>
        <longitude>
          <value>25.593488563465034</value>
        </longitude>
        <depth>
          <value>0.390625</value>
        </depth>
        <depthType>operator assigned</depthType>
        <quality>
          <usedPhaseCount>18</usedPhaseCount>
        </quality>
        <evaluationMode>automatic</evaluationMode>
        <evaluationStatus>preliminary</evaluationStatus>
        <comment>
          <text>Localized by: PyOcto</text>
        </comment>
      </origin>
      <pick publicID="smi:local/08b70610-a1be-4ac7-b929-f82182a273b2">
        <time>
          <value>2025-02-03T00:01:18.820000Z</value>
        </time>
        <waveformID networkCode="HA" stationCode="SNT1" channelCode=""></waveformID>
        <phaseHint>P</phaseHint>
        <evaluationMode>automatic</evaluationMode>
        <evaluationStatus>preliminary</evaluationStatus>
      </pick>
      <pick publicID="smi:local/97770391-4eee-47bb-a7c9-be7b50fa4b6e">
        <time>
          <value>2025-02-03T00:01:22.400000Z</value>
        </time>
        <waveformID networkCode="HA" stationCode="SNT1" channelCode=""></waveformID>
        <phaseHint>S</phaseHint>
        <evaluationMode>automatic</evaluationMode>
        <evaluationStatus>preliminary</evaluationStatus>
      </pick>
      <pick publicID="smi:local/c8253722-5f32-4c9f-a1ac-d08e41d60ad5">
        <time>
          <value>2025-02-03T00:01:32.650000Z</value>
        </time>
        <waveformID networkCode="HI" stationCode="NAX1" channelCode=""></waveformID>
        <phaseHint>S</phaseHint>
        <evaluationMode>automatic</evaluationMode>
        <evaluationStatus>preliminary</evaluationStatus>
      </pick>
      <pick publicID="smi:local/98d07f2a-d7fc-4df4-b683-2d7b18faf3a8">
        <time>
          <value>2025-02-03T00:01:19.320000Z</value>
        </time>
        <waveformID networkCode="HI" stationCode="SFR2" channelCode=""></waveformID>
        <phaseHint>P</phaseHint>
        <evaluationMode>automatic</evaluationMode>
        <evaluationStatus>preliminary</evaluationStatus>
      </pick>
      <pick publicID="smi:local/28141208-24c0-45fe-befc-85662a346a25">
        <time>
          <value>2025-02-03T00:01:22.950000Z</value>
        </time>
        <waveformID networkCode="HI" stationCode="SFR2" channelCode=""></waveformID>
        <phaseHint>S</phaseHint>
        <evaluationMode>automatic</evaluationMode>
        <evaluationStatus>preliminary</evaluationStatus>
      </pick>
      <pick publicID="smi:local/e77084a0-3756-4f85-b908-ae7d5a2d3fdf">
        <time>
          <value>2025-02-03T00:01:23.440000Z</value>
        </time>
        <waveformID networkCode="HL" stationCode="APE" channelCode=""></waveformID>
        <phaseHint>P</phaseHint>
        <evaluationMode>automatic</evaluationMode>
        <evaluationStatus>preliminary</evaluationStatus>
      </pick>
      <pick publicID="smi:local/12e8ec6d-c1ca-4d60-bb00-31098568f9f6">
        <time>
          <value>2025-02-03T00:01:47.100000Z</value>
        </time>
        <waveformID networkCode="HL" stationCode="MILA" channelCode=""></waveformID>
        <phaseHint>S</phaseHint>
        <evaluationMode>automatic</evaluationMode>
        <evaluationStatus>preliminary</evaluationStatus>
      </pick>
      <pick publicID="smi:local/4f312cb9-2c0c-462b-8719-7f32b268ad7f">
        <time>
          <value>2025-02-03T00:01:38.940000Z</value>
        </time>
        <waveformID networkCode="HL" stationCode="NISR" channelCode=""></waveformID>
        <phaseHint>P</phaseHint>
        <evaluationMode>automatic</evaluationMode>
        <evaluationStatus>preliminary</evaluationStatus>
      </pick>
      <pick publicID="smi:local/88800606-5e30-4689-8368-1a34ef1b16d9">
        <time>
          <value>2025-02-03T00:01:19.120000Z</value>
        </time>
        <waveformID networkCode="HL" stationCode="SANT" channelCode=""></waveformID>
        <phaseHint>P</phaseHint>
        <evaluationMode>automatic</evaluationMode>
        <evaluationStatus>preliminary</evaluationStatus>
      </pick>
      <pick publicID="smi:local/dfde4ca9-cf97-4ed7-93f4-b792c66d8d49">
        <time>
          <value>2025-02-03T00:01:19.700000Z</value>
        </time>
        <waveformID networkCode="HL" stationCode="SAP3" channelCode=""></waveformID>
        <phaseHint>P</phaseHint>
        <evaluationMode>automatic</evaluationMode>
        <evaluationStatus>preliminary</evaluationStatus>
      </pick>
      <pick publicID="smi:local/ae24f7ef-60ff-4995-bc27-2b180cb42f65">
        <time>
          <value>2025-02-03T00:01:23.910000Z</value>
        </time>
        <waveformID networkCode="HL" stationCode="SAP3" channelCode=""></waveformID>
        <phaseHint>S</phaseHint>
        <evaluationMode>automatic</evaluationMode>
        <evaluationStatus>preliminary</evaluationStatus>
      </pick>
      <pick publicID="smi:local/f379e568-29d8-4122-b55d-72b4a9a35870">
        <time>
          <value>2025-02-03T00:01:19.110000Z</value>
        </time>
        <waveformID networkCode="HL" stationCode="THERA" channelCode=""></waveformID>
        <phaseHint>P</phaseHint>
        <evaluationMode>automatic</evaluationMode>
        <evaluationStatus>preliminary</evaluationStatus>
      </pick>
      <pick publicID="smi:local/8e646be3-7f48-4aaf-b352-5aeabf4305fe">
        <time>
          <value>2025-02-03T00:01:22.780000Z</value>
        </time>
        <waveformID networkCode="HL" stationCode="THERA" channelCode=""></waveformID>
        <phaseHint>S</phaseHint>
        <evaluationMode>automatic</evaluationMode>
        <evaluationStatus>preliminary</evaluationStatus>
      </pick>
      <pick publicID="smi:local/08ab3765-2288-4a8f-b749-18a7d848602b">
        <time>
          <value>2025-02-03T00:01:33.380000Z</value>
        </time>
        <waveformID networkCode="HL" stationCode="TNSA" channelCode=""></waveformID>
        <phaseHint>P</phaseHint>
        <evaluationMode>automatic</evaluationMode>
        <evaluationStatus>preliminary</evaluationStatus>
      </pick>
      <pick publicID="smi:local/5d8cbf7f-14c4-44f4-a534-c1327aaf5295">
        <time>
          <value>2025-02-03T00:01:20.180000Z</value>
        </time>
        <waveformID networkCode="HT" stationCode="AKRO" channelCode=""></waveformID>
        <phaseHint>P</phaseHint>
        <evaluationMode>automatic</evaluationMode>
        <evaluationStatus>preliminary</evaluationStatus>
      </pick>
      <pick publicID="smi:local/3f901df3-8d9e-4f10-8b01-748800ec878d">
        <time>
          <value>2025-02-03T00:01:24.900000Z</value>
        </time>
        <waveformID networkCode="HT" stationCode="AKRO" channelCode=""></waveformID>
        <phaseHint>S</phaseHint>
        <evaluationMode>automatic</evaluationMode>
        <evaluationStatus>preliminary</evaluationStatus>
      </pick>
      <pick publicID="smi:local/5c1562cc-74d8-48b3-a3dc-09dc2b2a2561">
        <time>
          <value>2025-02-03T00:01:18.590000Z</value>
        </time>
        <waveformID networkCode="HT" stationCode="THR2" channelCode=""></waveformID>
        <phaseHint>P</phaseHint>
        <evaluationMode>automatic</evaluationMode>
        <evaluationStatus>preliminary</evaluationStatus>
      </pick>
      <pick publicID="smi:local/b24446a8-cec2-4091-a43f-683df7524683">
        <time>
          <value>2025-02-03T00:01:21.890000Z</value>
        </time>
        <waveformID networkCode="HT" stationCode="THR2" channelCode=""></waveformID>
        <phaseHint>S</phaseHint>
        <evaluationMode>automatic</evaluationMode>
        <evaluationStatus>preliminary</evaluationStatus>
      </pick>
    </event>
    <event publicID="smi:local/e496e64e-f73a-4141-9bb7-a2d2bf530631">
      <origin publicID="smi:local/5d43f502-8657-42a0-8da7-140bd23da33e">
        <time>
          <value>2025-02-03T00:02:19.477401Z</value>
        </time>
        <latitude>
          <value>36.639468535776736</value>
        </latitude>
        <longitude>
          <value>25.744219953976373</value>
        </longitude>
        <depth>
          <value>12.890625</value>
        </depth>
        <depthType>operator assigned</depthType>
        <quality>
          <usedPhaseCount>9</usedPhaseCount>
        </quality>
        <evaluationMode>automatic</evaluationMode>
        <evaluationStatus>preliminary</evaluationStatus>
        <comment>
          <text>Localized by: PyOcto</text>
        </comment>
      </origin>
      <pick publicID="smi:local/166c26e8-c963-4b46-82a6-a1a3b676108b">
        <time>
          <value>2025-02-03T00:02:29.010000Z</value>
        </time>
        <waveformID networkCode="HL" stationCode="APE" channelCode=""></waveformID>
        <phaseHint>P</phaseHint>
        <evaluationMode>automatic</evaluationMode>
        <evaluationStatus>preliminary</evaluationStatus>
      </pick>
      <pick publicID="smi:local/3b3a7774-3d0f-4369-aff8-63cc7adbe0b5">
        <time>
          <value>2025-02-03T00:02:26.980000Z</value>
        </time>
        <waveformID networkCode="HL" stationCode="SANT" channelCode=""></waveformID>
        <phaseHint>P</phaseHint>
        <evaluationMode>automatic</evaluationMode>
        <evaluationStatus>preliminary</evaluationStatus>
      </pick>
      <pick publicID="smi:local/e6f6774a-9695-4f93-a3a9-1c4043e06692">
        <time>
          <value>2025-02-03T00:02:52.670000Z</value>
        </time>
        <waveformID networkCode="HL" stationCode="SIVA" channelCode=""></waveformID>
        <phaseHint>P</phaseHint>
        <evaluationMode>automatic</evaluationMode>
        <evaluationStatus>preliminary</evaluationStatus>
      </pick>
      <pick publicID="smi:local/82c3cabb-457c-4dcf-8faa-709b2886617e">
        <time>
          <value>2025-02-03T00:02:45.660000Z</value>
        </time>
        <waveformID networkCode="HL" stationCode="SMG" channelCode=""></waveformID>
        <phaseHint>P</phaseHint>
        <evaluationMode>automatic</evaluationMode>
        <evaluationStatus>preliminary</evaluationStatus>
      </pick>
      <pick publicID="smi:local/b5169166-4779-4389-9a72-347801e068de">
        <time>
          <value>2025-02-03T00:02:26.610000Z</value>
        </time>
        <waveformID networkCode="HL" stationCode="THERA" channelCode=""></waveformID>
        <phaseHint>P</phaseHint>
        <evaluationMode>automatic</evaluationMode>
        <evaluationStatus>preliminary</evaluationStatus>
      </pick>
      <pick publicID="smi:local/cb57d19c-4b8e-4615-993b-f47792ea3f25">
        <time>
          <value>2025-02-03T00:02:31.550000Z</value>
        </time>
        <waveformID networkCode="HL" stationCode="THERA" channelCode=""></waveformID>
        <phaseHint>S</phaseHint>
        <evaluationMode>automatic</evaluationMode>
        <evaluationStatus>preliminary</evaluationStatus>
      </pick>
      <pick publicID="smi:local/6f038e3b-3c81-47c4-a3e3-6a28c2274505">
        <time>
          <value>2025-02-03T00:02:28.430000Z</value>
        </time>
        <waveformID networkCode="HT" stationCode="AKRO" channelCode=""></waveformID>
        <phaseHint>P</phaseHint>
        <evaluationMode>automatic</evaluationMode>
        <evaluationStatus>preliminary</evaluationStatus>
      </pick>
      <pick publicID="smi:local/53cd6294-5d68-4367-a6f6-f4772fcbda0c">
        <time>
          <value>2025-02-03T00:02:31.290000Z</value>
        </time>
        <waveformID networkCode="HT" stationCode="THR2" channelCode=""></waveformID>
        <phaseHint>S</phaseHint>
        <evaluationMode>automatic</evaluationMode>
        <evaluationStatus>preliminary</evaluationStatus>
      </pick>
      <pick publicID="smi:local/fed40de8-f0e0-4881-9328-70ed4c6177e5">
        <time>
          <value>2025-02-03T00:02:34.640000Z</value>
        </time>
        <waveformID networkCode="HT" stationCode="THR9" channelCode=""></waveformID>
        <phaseHint>S</phaseHint>
        <evaluationMode>automatic</evaluationMode>
        <evaluationStatus>preliminary</evaluationStatus>
      </pick>
    </event>
    <event publicID="smi:local/9cb9ece3-d0db-48ab-824f-8e08cba1ecc2">
      <origin publicID="smi:local/7cf5db6a-a165-4172-a285-bb00042ef4db">
        <time>
          <value>2025-02-03T00:03:21.642716Z</value>
        </time>
        <latitude>
          <value>36.601964011288224</value>
        </latitude>
        <longitude>
          <value>25.643721710834107</value>
        </longitude>
        <depth>
          <value>7.421875</value>
        </depth>
        <depthType>operator assigned</depthType>
        <quality>
          <usedPhaseCount>10</usedPhaseCount>
        </quality>
        <evaluationMode>automatic</evaluationMode>
        <evaluationStatus>preliminary</evaluationStatus>
        <comment>
          <text>Localized by: PyOcto</text>
        </comment>
      </origin>
      <pick publicID="smi:local/f590da07-1b03-489a-9f89-1b8766e7dd30">
        <time>
          <value>2025-02-03T00:03:30.820000Z</value>
        </time>
        <waveformID networkCode="HA" stationCode="SNT1" channelCode=""></waveformID>
        <phaseHint>S</phaseHint>
        <evaluationMode>automatic</evaluationMode>
        <evaluationStatus>preliminary</evaluationStatus>
      </pick>
      <pick publicID="smi:local/7f7be88e-b7d0-416e-8942-145ff6c9a1ed">
        <time>
          <value>2025-02-03T00:03:27.670000Z</value>
        </time>
        <waveformID networkCode="HI" stationCode="SFR2" channelCode=""></waveformID>
        <phaseHint>P</phaseHint>
        <evaluationMode>automatic</evaluationMode>
        <evaluationStatus>preliminary</evaluationStatus>
      </pick>
      <pick publicID="smi:local/3eb74c7f-09bf-479f-ab10-cd63542342ed">
        <time>
          <value>2025-02-03T00:03:31.400000Z</value>
        </time>
        <waveformID networkCode="HI" stationCode="SFR2" channelCode=""></waveformID>
        <phaseHint>S</phaseHint>
        <evaluationMode>automatic</evaluationMode>
        <evaluationStatus>preliminary</evaluationStatus>
      </pick>
      <pick publicID="smi:local/e3cf4df4-4c51-46c4-82bd-00d0cbc1af44">
        <time>
          <value>2025-02-03T00:03:31.370000Z</value>
        </time>
        <waveformID networkCode="HL" stationCode="APE" channelCode=""></waveformID>
        <phaseHint>P</phaseHint>
        <evaluationMode>automatic</evaluationMode>
        <evaluationStatus>preliminary</evaluationStatus>
      </pick>
      <pick publicID="smi:local/419b5dc4-e3c9-434d-9059-d2ec8c21dc3e">
        <time>
          <value>2025-02-03T00:03:27.630000Z</value>
        </time>
        <waveformID networkCode="HL" stationCode="SANT" channelCode=""></waveformID>
        <phaseHint>P</phaseHint>
        <evaluationMode>automatic</evaluationMode>
        <evaluationStatus>preliminary</evaluationStatus>
      </pick>
      <pick publicID="smi:local/a0fc2394-0744-4cf6-af9b-5f3911948e33">
        <time>
          <value>2025-02-03T00:03:32.720000Z</value>
        </time>
        <waveformID networkCode="HL" stationCode="SAP3" channelCode=""></waveformID>
        <phaseHint>S</phaseHint>
        <evaluationMode>automatic</evaluationMode>
        <evaluationStatus>preliminary</evaluationStatus>
      </pick>
      <pick publicID="smi:local/47d723b0-ea59-47b5-a5fb-78ab6cd0ecca">
        <time>
          <value>2025-02-03T00:03:27.410000Z</value>
        </time>
        <waveformID networkCode="HL" stationCode="THERA" channelCode=""></waveformID>
        <phaseHint>P</phaseHint>
        <evaluationMode>automatic</evaluationMode>
        <evaluationStatus>preliminary</evaluationStatus>
      </pick>
      <pick publicID="smi:local/a4e01fb0-88d1-45bc-a11d-380d0f64440f">
        <time>
          <value>2025-02-03T00:03:31.240000Z</value>
        </time>
        <waveformID networkCode="HL" stationCode="THERA" channelCode=""></waveformID>
        <phaseHint>S</phaseHint>
        <evaluationMode>automatic</evaluationMode>
        <evaluationStatus>preliminary</evaluationStatus>
      </pick>
      <pick publicID="smi:local/6361a17f-bf61-45d0-ac66-0b1e37a8ef8d">
        <time>
          <value>2025-02-03T00:03:28.810000Z</value>
        </time>
        <waveformID networkCode="HT" stationCode="AKRO" channelCode=""></waveformID>
        <phaseHint>P</phaseHint>
        <evaluationMode>automatic</evaluationMode>
        <evaluationStatus>preliminary</evaluationStatus>
      </pick>
      <pick publicID="smi:local/dbe795e1-0eca-48e2-867c-d95c89202dc8">
        <time>
          <value>2025-02-03T00:03:33.290000Z</value>
        </time>
        <waveformID networkCode="HT" stationCode="THR6" channelCode=""></waveformID>
        <phaseHint>S</phaseHint>
        <evaluationMode>automatic</evaluationMode>
        <evaluationStatus>preliminary</evaluationStatus>
      </pick>
    </event>
    <event publicID="smi:local/4c81b08b-c1f3-4dc0-819b-1e19b74370d7">
      <origin publicID="smi:local/0aa1fafe-909e-4fc5-b0ee-89c3901e231f">
        <time>
          <value>2025-02-03T00:05:14.955308Z</value>
        </time>
        <latitude>
          <value>36.62072161109751</value>
        </latitude>
        <longitude>
          <value>25.706518286033706</value>
        </longitude>
        <depth>
          <value>19.921875</value>
        </depth>
        <depthType>operator assigned</depthType>
        <quality>
          <usedPhaseCount>34</usedPhaseCount>
        </quality>
        <evaluationMode>automatic</evaluationMode>
        <evaluationStatus>preliminary</evaluationStatus>
        <comment>
          <text>Localized by: PyOcto</text>
        </comment>
      </origin>
      <pick publicID="smi:local/b8f1ffcc-b06e-4f68-a317-1804513a7a98">
        <time>
          <value>2025-02-03T00:05:45.940000Z</value>
        </time>
        <waveformID networkCode="HA" stationCode="KARY" channelCode=""></waveformID>
        <phaseHint>P</phaseHint>
        <evaluationMode>automatic</evaluationMode>
        <evaluationStatus>preliminary</evaluationStatus>
      </pick>
      <pick publicID="smi:local/02cb3405-d3c9-4ea8-8da0-026fd42c36c6">
        <time>
          <value>2025-02-03T00:05:22.040000Z</value>
        </time>
        <waveformID networkCode="HA" stationCode="SNT1" channelCode=""></waveformID>
        <phaseHint>P</phaseHint>
        <evaluationMode>automatic</evaluationMode>
        <evaluationStatus>preliminary</evaluationStatus>
      </pick>
      <pick publicID="smi:local/fd0723f6-1bd8-461e-8b75-f573cd81bc9e">
        <time>
          <value>2025-02-03T00:05:26.220000Z</value>
        </time>
        <waveformID networkCode="HA" stationCode="SNT1" channelCode=""></waveformID>
        <phaseHint>S</phaseHint>
        <evaluationMode>automatic</evaluationMode>
        <evaluationStatus>preliminary</evaluationStatus>
      </pick>
      <pick publicID="smi:local/c0027c04-2519-468a-a1cc-76f6ce056648">
        <time>
          <value>2025-02-03T00:05:40.370000Z</value>
        </time>
        <waveformID networkCode="HC" stationCode="KNSS" channelCode=""></waveformID>
        <phaseHint>P</phaseHint>
        <evaluationMode>automatic</evaluationMode>
        <evaluationStatus>preliminary</evaluationStatus>
      </pick>
      <pick publicID="smi:local/1cda431c-19bf-468e-9f40-855fe0855ea6">
        <time>
          <value>2025-02-03T00:05:41.670000Z</value>
        </time>
        <waveformID networkCode="HC" stationCode="STIA" channelCode=""></waveformID>
        <phaseHint>P</phaseHint>
        <evaluationMode>automatic</evaluationMode>
