<?xml version='1.0' encoding='utf-8'?>
<q:quakeml xmlns="http://quakeml.org/xmlns/bed/1.2" xmlns:q="http://quakeml.org/xmlns/quakeml/1.2">
  <eventParameters publicID="smi:local/044441d3-dd73-4535-abbc-884dc6dd019c">
    <event publicID="smi:local/e398bc9c-1d16-499d-851d-65462fcd47ff">
      <origin publicID="smi:local/5e226f26-6ac4-4864-8a0b-809c902d5519">
        <time>
          <value>2025-01-27T20:15:07.625757Z</value>
        </time>
        <latitude>
          <value>36.56437459643284</value>
        </latitude>
        <longitude>
          <value>25.543320835630965</value>
        </longitude>
        <depth>
          <value>15.234375</value>
        </depth>
        <depthType>operator assigned</depthType>
        <quality>
          <usedPhaseCount>22</usedPhaseCount>
        </quality>
        <evaluationMode>automatic</evaluationMode>
        <evaluationStatus>preliminary</evaluationStatus>
        <comment>
          <text>Localized by: PyOcto</text>
        </comment>
      </origin>
      <pick publicID="smi:local/1afc4251-0f8a-4c6c-a57d-7667e58ceaaf">
        <time>
          <value>2025-01-27T20:15:19.290000Z</value>
        </time>
        <waveformID networkCode="HI" stationCode="NAX1" channelCode=""></waveformID>
        <phaseHint>P</phaseHint>
        <evaluationMode>automatic</evaluationMode>
        <evaluationStatus>preliminary</evaluationStatus>
      </pick>
      <pick publicID="smi:local/05da1049-c396-4942-a681-46ee36b90f7e">
        <time>
          <value>2025-01-27T20:15:26.820000Z</value>
        </time>
        <waveformID networkCode="HI" stationCode="NAX1" channelCode=""></waveformID>
        <phaseHint>S</phaseHint>
        <evaluationMode>automatic</evaluationMode>
        <evaluationStatus>preliminary</evaluationStatus>
      </pick>
      <pick publicID="smi:local/385e6c5c-6419-41c9-a5a8-aee36d76375c">
        <time>
          <value>2025-01-27T20:15:12.310000Z</value>
        </time>
        <waveformID networkCode="HI" stationCode="SFR2" channelCode=""></waveformID>
        <phaseHint>P</phaseHint>
        <evaluationMode>automatic</evaluationMode>
        <evaluationStatus>preliminary</evaluationStatus>
      </pick>
      <pick publicID="smi:local/d48a0120-7a93-407b-b8f3-049ab0d0d41f">
        <time>
          <value>2025-01-27T20:15:18.050000Z</value>
        </time>
        <waveformID networkCode="HL" stationCode="APE" channelCode=""></waveformID>
        <phaseHint>P</phaseHint>
        <evaluationMode>automatic</evaluationMode>
        <evaluationStatus>preliminary</evaluationStatus>
      </pick>
      <pick publicID="smi:local/e3e591ae-7e9e-4911-99d7-8fef9320c580">
        <time>
          <value>2025-01-27T20:15:25.480000Z</value>
        </time>
        <waveformID networkCode="HL" stationCode="APE" channelCode=""></waveformID>
        <phaseHint>S</phaseHint>
        <evaluationMode>automatic</evaluationMode>
        <evaluationStatus>preliminary</evaluationStatus>
      </pick>
      <pick publicID="smi:local/3efbda83-263a-4ebb-9461-3ef561b832ac">
        <time>
          <value>2025-01-27T20:15:24.510000Z</value>
        </time>
        <waveformID networkCode="HL" stationCode="MIL7" channelCode=""></waveformID>
        <phaseHint>P</phaseHint>
        <evaluationMode>automatic</evaluationMode>
        <evaluationStatus>preliminary</evaluationStatus>
      </pick>
      <pick publicID="smi:local/5f2c8c60-c964-4e0e-9fef-f046b319bea8">
        <time>
          <value>2025-01-27T20:15:12.440000Z</value>
        </time>
        <waveformID networkCode="HL" stationCode="SANT" channelCode=""></waveformID>
        <phaseHint>P</phaseHint>
        <evaluationMode>automatic</evaluationMode>
        <evaluationStatus>preliminary</evaluationStatus>
      </pick>
      <pick publicID="smi:local/0d373caa-5dc7-4df6-a4a8-04bd79a19da8">
        <time>
          <value>2025-01-27T20:15:15.820000Z</value>
        </time>
        <waveformID networkCode="HL" stationCode="SANT" channelCode=""></waveformID>
        <phaseHint>S</phaseHint>
        <evaluationMode>automatic</evaluationMode>
        <evaluationStatus>preliminary</evaluationStatus>
      </pick>
      <pick publicID="smi:local/b9deeb63-e5f1-4c15-aa8a-10e846b2f7e9">
        <time>
          <value>2025-01-27T20:15:12.710000Z</value>
        </time>
        <waveformID networkCode="HL" stationCode="SAP3" channelCode=""></waveformID>
        <phaseHint>P</phaseHint>
        <evaluationMode>automatic</evaluationMode>
        <evaluationStatus>preliminary</evaluationStatus>
      </pick>
      <pick publicID="smi:local/e354b2fa-6636-4b74-a80f-f6f8b8d1c3fb">
        <time>
          <value>2025-01-27T20:15:16.080000Z</value>
        </time>
        <waveformID networkCode="HL" stationCode="SAP3" channelCode=""></waveformID>
        <phaseHint>S</phaseHint>
        <evaluationMode>automatic</evaluationMode>
        <evaluationStatus>preliminary</evaluationStatus>
      </pick>
      <pick publicID="smi:local/5328d15d-afbc-461a-a99a-61140318e80f">
        <time>
          <value>2025-01-27T20:15:12.360000Z</value>
        </time>
        <waveformID networkCode="HL" stationCode="THERA" channelCode=""></waveformID>
        <phaseHint>P</phaseHint>
        <evaluationMode>automatic</evaluationMode>
        <evaluationStatus>preliminary</evaluationStatus>
      </pick>
      <pick publicID="smi:local/fd3ffc4e-fa24-4eb2-905e-39561074c228">
        <time>
          <value>2025-01-27T20:15:15.550000Z</value>
        </time>
        <waveformID networkCode="HL" stationCode="THERA" channelCode=""></waveformID>
        <phaseHint>S</phaseHint>
        <evaluationMode>automatic</evaluationMode>
        <evaluationStatus>preliminary</evaluationStatus>
      </pick>
      <pick publicID="smi:local/0a76a04a-7c10-4a06-8426-edfdec887e95">
        <time>
          <value>2025-01-27T20:15:12.200000Z</value>
        </time>
        <waveformID networkCode="HL" stationCode="THRA" channelCode=""></waveformID>
        <phaseHint>P</phaseHint>
        <evaluationMode>automatic</evaluationMode>
        <evaluationStatus>preliminary</evaluationStatus>
      </pick>
      <pick publicID="smi:local/170ea439-1b39-4a05-837a-d6d27daf0973">
        <time>
          <value>2025-01-27T20:15:41.410000Z</value>
        </time>
        <waveformID networkCode="HL" stationCode="TNSA" channelCode=""></waveformID>
        <phaseHint>S</phaseHint>
        <evaluationMode>automatic</evaluationMode>
        <evaluationStatus>preliminary</evaluationStatus>
      </pick>
      <pick publicID="smi:local/2cddf9f6-279d-461b-91db-10c6d5ab5042">
        <time>
          <value>2025-01-27T20:15:13.230000Z</value>
        </time>
        <waveformID networkCode="HT" stationCode="AKRO" channelCode=""></waveformID>
        <phaseHint>P</phaseHint>
        <evaluationMode>automatic</evaluationMode>
        <evaluationStatus>preliminary</evaluationStatus>
      </pick>
      <pick publicID="smi:local/5825c271-35f7-41df-9e3c-e4edb94719e2">
        <time>
          <value>2025-01-27T20:15:17.440000Z</value>
        </time>
        <waveformID networkCode="HT" stationCode="AKRO" channelCode=""></waveformID>
        <phaseHint>S</phaseHint>
        <evaluationMode>automatic</evaluationMode>
        <evaluationStatus>preliminary</evaluationStatus>
      </pick>
      <pick publicID="smi:local/c72cfa7e-99ee-41ab-99ec-80d4468049ee">
        <time>
          <value>2025-01-27T20:15:11.870000Z</value>
        </time>
        <waveformID networkCode="HT" stationCode="CMBO" channelCode=""></waveformID>
        <phaseHint>P</phaseHint>
        <evaluationMode>automatic</evaluationMode>
        <evaluationStatus>preliminary</evaluationStatus>
      </pick>
      <pick publicID="smi:local/ce4bc9c6-b941-41ec-b988-6d534bb0f062">
        <time>
          <value>2025-01-27T20:15:14.610000Z</value>
        </time>
        <waveformID networkCode="HT" stationCode="CMBO" channelCode=""></waveformID>
        <phaseHint>S</phaseHint>
        <evaluationMode>automatic</evaluationMode>
        <evaluationStatus>preliminary</evaluationStatus>
      </pick>
      <pick publicID="smi:local/c17fe55f-3643-46f6-afb2-dd3e5bbfd98b">
        <time>
          <value>2025-01-27T20:15:11.850000Z</value>
        </time>
        <waveformID networkCode="HT" stationCode="THR2" channelCode=""></waveformID>
        <phaseHint>P</phaseHint>
        <evaluationMode>automatic</evaluationMode>
        <evaluationStatus>preliminary</evaluationStatus>
      </pick>
      <pick publicID="smi:local/4994bd52-f692-4037-b569-edf54ff6cd50">
        <time>
          <value>2025-01-27T20:15:14.620000Z</value>
        </time>
        <waveformID networkCode="HT" stationCode="THR2" channelCode=""></waveformID>
        <phaseHint>S</phaseHint>
        <evaluationMode>automatic</evaluationMode>
        <evaluationStatus>preliminary</evaluationStatus>
      </pick>
      <pick publicID="smi:local/18c3ca94-f9fe-450d-b2c2-aeadc7fcf237">
        <time>
          <value>2025-01-27T20:15:13.280000Z</value>
        </time>
        <waveformID networkCode="HT" stationCode="THR6" channelCode=""></waveformID>
        <phaseHint>P</phaseHint>
        <evaluationMode>automatic</evaluationMode>
        <evaluationStatus>preliminary</evaluationStatus>
      </pick>
      <pick publicID="smi:local/a6e013ee-b325-4d3c-b1ca-13eff8375212">
        <time>
          <value>2025-01-27T20:15:13.510000Z</value>
        </time>
        <waveformID networkCode="HT" stationCode="THR9" channelCode=""></waveformID>
        <phaseHint>P</phaseHint>
        <evaluationMode>automatic</evaluationMode>
        <evaluationStatus>preliminary</evaluationStatus>
      </pick>
    </event>
  </eventParameters>
</q:quakeml>
