<?xml version="1.0"?>
<q:quakeml xmlns="http://quakeml.org/xmlns/quakeml/1.2" xmlns:q="http://quakeml.org/xmlns/quakeml/1.2">
	<eventParameters publicID="smi:igf.edu.pl/Konin#eventParameters">
		<event publicID="smi:igf.edu.pl/LGCD_CIBIS_802010">
			<preferredOriginID>smi:igf.edu.pl/SWIDB_at_dblumineos.igf.edu.pl#Origin802010</preferredOriginID>
			<origin publicID="smi:igf.edu.pl/SWIDB_at_dblumineos.igf.edu.pl#Origin802010">
				<time>
					<value>2016-09-24T00:37:00.523Z</value>
				</time>
				<latitude>
					<value>51.556713</value>
				</latitude>
				<longitude>
					<value>16.115444</value>
				</longitude>
				<depth>
					<value>0.42</value>
				</depth>
				<depthType>from location</depthType>
				<region>Lubin</region>
			</origin>
			<stationMagnitude publicID="smi:igf.edu.pl/dblumineos.igf.edu.pl#StaMagnitude222085">
				<mag>
					<value>0.9</value>
				</mag>
				<originID>smi:igf.edu.pl/SWIDB_at_dblumineos.igf.edu.pl#Origin802010</originID>
				<type>Mw</type>
				<waveformID networkCode="PL" stationCode="DWOL" />
			</stationMagnitude>
			<stationMagnitude publicID="smi:igf.edu.pl/dblumineos.igf.edu.pl#StaMagnitude222090">
				<mag>
					<value>1</value>
				</mag>
				<originID>smi:igf.edu.pl/SWIDB_at_dblumineos.igf.edu.pl#Origin802010</originID>
				<type>Mw</type>
				<waveformID networkCode="PL" stationCode="MOSK2" />
			</stationMagnitude>
			<stationMagnitude publicID="smi:igf.edu.pl/dblumineos.igf.edu.pl#StaMagnitude222095">
				<mag>
					<value>1.2</value>
				</mag>
				<originID>smi:igf.edu.pl/SWIDB_at_dblumineos.igf.edu.pl#Origin802010</originID>
				<type>Mw</type>
				<waveformID networkCode="PL" stationCode="TRN2" />
			</stationMagnitude>
			<stationMagnitude publicID="smi:igf.edu.pl/dblumineos.igf.edu.pl#StaMagnitude222100">
				<mag>
					<value>0.9</value>
				</mag>
				<originID>smi:igf.edu.pl/SWIDB_at_dblumineos.igf.edu.pl#Origin802010</originID>
				<type>Mw</type>
				<waveformID networkCode="PL" stationCode="KWLC" />
			</stationMagnitude>
			<spectralParameter publicID="smi:igf.edu.pl/spectralParameter_P_DWOL802010">
				<spectralLevel>
					<value>1.2e-005</value>
				</spectralLevel>
				<cornelFrequency>
					<value>5.31731</value>
				</cornelFrequency>
				<waveformID networkCode="PL" stationCode="DWOL" />
			</spectralParameter>
			<spectralParameter publicID="smi:igf.edu.pl/spectralParameter_P_KWLC802010">
				<spectralLevel>
					<value>1.8e-005</value>
				</spectralLevel>
				<cornelFrequency>
					<value>2.9712</value>
				</cornelFrequency>
				<waveformID networkCode="PL" stationCode="KWLC" />
			</spectralParameter>
			<spectralParameter publicID="smi:igf.edu.pl/spectralParameter_P_MOSK2802010">
				<spectralLevel>
					<value>2.8e-005</value>
				</spectralLevel>
				<cornelFrequency>
					<value>2.77422</value>
				</cornelFrequency>
				<waveformID networkCode="PL" stationCode="MOSK2" />
			</spectralParameter>
			<spectralParameter publicID="smi:igf.edu.pl/spectralParameter_P_TRN2802010">
				<spectralLevel>
					<value>5.8e-005</value>
				</spectralLevel>
				<cornelFrequency>
					<value>1.57104</value>
				</cornelFrequency>
				<waveformID networkCode="PL" stationCode="TRN2" />
			</spectralParameter>
			<spectralParameter publicID="smi:igf.edu.pl/spectralParameter_S_DWOL802010">
				<spectralLevel>
					<value>1.6e-005</value>
				</spectralLevel>
				<cornelFrequency>
					<value>3.72873</value>
				</cornelFrequency>
				<waveformID networkCode="PL" stationCode="DWOL" />
			</spectralParameter>
			<spectralParameter publicID="smi:igf.edu.pl/spectralParameter_S_KWLC802010">
				<spectralLevel>
					<value>1.6e-005</value>
				</spectralLevel>
				<cornelFrequency>
					<value>2.97854</value>
				</cornelFrequency>
				<waveformID networkCode="PL" stationCode="KWLC" />
			</spectralParameter>
			<spectralParameter publicID="smi:igf.edu.pl/spectralParameter_S_MOSK2802010">
				<spectralLevel>
					<value>2.2e-005</value>
				</spectralLevel>
				<cornelFrequency>
					<value>1.81534</value>
				</cornelFrequency>
				<waveformID networkCode="PL" stationCode="MOSK2" />
			</spectralParameter>
			<spectralParameter publicID="smi:igf.edu.pl/spectralParameter_S_TRN2802010">
				<spectralLevel>
					<value>4.4e-005</value>
				</spectralLevel>
				<cornelFrequency>
					<value>3.04066</value>
				</cornelFrequency>
				<waveformID networkCode="PL" stationCode="TRN2" />
			</spectralParameter>
			<pick publicID="smi:igf.edu.pl/dblumineos.igf.edu.pl#Pick129499">
				<time>
					<value>2016-09-24T00:37:01.541Z</value>
				</time>
				<waveformID channelCode="EHZ" networkCode="PL" stationCode="DWOL" />
				<onset>questionable</onset>
				<phaseHint>Pg</phaseHint>
				<polarity>undecidable</polarity>
			</pick>
			<pick publicID="smi:igf.edu.pl/dblumineos.igf.edu.pl#Pick129501">
				<time>
					<value>2016-09-24T00:37:02.041Z</value>
				</time>
				<waveformID channelCode="CNZ" networkCode="PL" stationCode="KOMR" />
				<onset>questionable</onset>
				<phaseHint>Pg</phaseHint>
				<polarity>undecidable</polarity>
			</pick>
			<pick publicID="smi:igf.edu.pl/dblumineos.igf.edu.pl#Pick129503">
				<time>
					<value>2016-09-24T00:37:01.630Z</value>
				</time>
				<waveformID channelCode="EHZ" networkCode="PL" stationCode="MOSK2" />
				<onset>questionable</onset>
				<phaseHint>Pg</phaseHint>
				<polarity>undecidable</polarity>
			</pick>
			<pick publicID="smi:igf.edu.pl/dblumineos.igf.edu.pl#Pick129505">
				<time>
					<value>2016-09-24T00:37:02.315Z</value>
				</time>
				<waveformID channelCode="EHZ" networkCode="PL" stationCode="TRN2" />
				<onset>questionable</onset>
				<phaseHint>Pg</phaseHint>
				<polarity>undecidable</polarity>
			</pick>
			<pick publicID="smi:igf.edu.pl/dblumineos.igf.edu.pl#Pick129507">
				<time>
					<value>2016-09-24T00:37:01.580Z</value>
				</time>
				<waveformID channelCode="EHZ" networkCode="PL" stationCode="ZUKW2" />
				<onset>questionable</onset>
				<phaseHint>Pg</phaseHint>
				<polarity>undecidable</polarity>
			</pick>
			<pick publicID="smi:igf.edu.pl/dblumineos.igf.edu.pl#Pick129508">
				<time>
					<value>2016-09-24T00:37:02.165Z</value>
				</time>
				<waveformID channelCode="EHZ" networkCode="PL" stationCode="KWLC" />
				<onset>questionable</onset>
				<phaseHint>Pg</phaseHint>
				<polarity>undecidable</polarity>
			</pick>
			<pick publicID="smi:igf.edu.pl/dblumineos.igf.edu.pl#Pick129510">
				<time>
					<value>2016-09-24T00:37:03.358Z</value>
				</time>
				<waveformID channelCode="EHZ" networkCode="PL" stationCode="RYNR" />
				<onset>questionable</onset>
				<phaseHint>Pg</phaseHint>
				<polarity>undecidable</polarity>
			</pick>
		</event>
		<event publicID="smi:igf.edu.pl/LGCD_CIBIS_802676">
			<preferredOriginID>smi:igf.edu.pl/SWIDB_at_dblumineos.igf.edu.pl#Origin802676</preferredOriginID>
			<origin publicID="smi:igf.edu.pl/SWIDB_at_dblumineos.igf.edu.pl#Origin802676">
				<time>
					<value>2017-05-15T21:28:50.665Z</value>
				</time>
				<latitude>
					<value>51.509819</value>
				</latitude>
				<longitude>
					<value>16.134939</value>
				</longitude>
				<depth>
					<value>0.520000024</value>
				</depth>
				<depthType>from location</depthType>
				<region>Lubin</region>
			</origin>
			<stationMagnitude publicID="smi:igf.edu.pl/dblumineos.igf.edu.pl#StaMagnitude264221">
				<mag>
					<value>0.7</value>
				</mag>
				<originID>smi:igf.edu.pl/SWIDB_at_dblumineos.igf.edu.pl#Origin802676</originID>
				<type>Mw</type>
				<waveformID networkCode="PL" stationCode="TRN2" />
			</stationMagnitude>
			<stationMagnitude publicID="smi:igf.edu.pl/dblumineos.igf.edu.pl#StaMagnitude264226">
				<mag>
					<value>1</value>
				</mag>
				<originID>smi:igf.edu.pl/SWIDB_at_dblumineos.igf.edu.pl#Origin802676</originID>
				<type>Mw</type>
				<waveformID networkCode="PL" stationCode="ZMST" />
			</stationMagnitude>
			<stationMagnitude publicID="smi:igf.edu.pl/dblumineos.igf.edu.pl#StaMagnitude264231">
				<mag>
					<value>0.9</value>
				</mag>
				<originID>smi:igf.edu.pl/SWIDB_at_dblumineos.igf.edu.pl#Origin802676</originID>
				<type>Mw</type>
				<waveformID networkCode="PL" stationCode="ZUKW2" />
			</stationMagnitude>
			<spectralParameter publicID="smi:igf.edu.pl/spectralParameter_P_TRN2802676">
				<spectralLevel>
					<value>4.4e-005</value>
				</spectralLevel>
				<cornelFrequency>
					<value>2.7519</value>
				</cornelFrequency>
				<waveformID networkCode="PL" stationCode="TRN2" />
			</spectralParameter>
			<spectralParameter publicID="smi:igf.edu.pl/spectralParameter_P_ZMST802676">
				<spectralLevel>
					<value>5.7e-005</value>
				</spectralLevel>
				<cornelFrequency>
					<value>13.2328</value>
				</cornelFrequency>
				<waveformID networkCode="PL" stationCode="ZMST" />
			</spectralParameter>
			<spectralParameter publicID="smi:igf.edu.pl/spectralParameter_P_ZUKW2802676">
				<spectralLevel>
					<value>5.4e-005</value>
				</spectralLevel>
				<cornelFrequency>
					<value>9.77354</value>
				</cornelFrequency>
				<waveformID networkCode="PL" stationCode="ZUKW2" />
			</spectralParameter>
			<spectralParameter publicID="smi:igf.edu.pl/spectralParameter_S_TRN2802676">
				<spectralLevel>
					<value>1.6e-005</value>
				</spectralLevel>
				<cornelFrequency>
					<value>10.6333</value>
				</cornelFrequency>
				<waveformID networkCode="PL" stationCode="TRN2" />
			</spectralParameter>
			<spectralParameter publicID="smi:igf.edu.pl/spectralParameter_S_ZMST802676">
				<spectralLevel>
					<value>4.5e-005</value>
				</spectralLevel>
				<cornelFrequency>
					<value>4.14222</value>
				</cornelFrequency>
				<waveformID networkCode="PL" stationCode="ZMST" />
			</spectralParameter>
			<spectralParameter publicID="smi:igf.edu.pl/spectralParameter_S_ZUKW2802676">
				<spectralLevel>
					<value>3e-005</value>
				</spectralLevel>
				<cornelFrequency>
					<value>1.72359</value>
				</cornelFrequency>
				<waveformID networkCode="PL" stationCode="ZUKW2" />
			</spectralParameter>
			<pick publicID="smi:igf.edu.pl/dblumineos.igf.edu.pl#Pick153756">
				<time>
					<value>2017-05-15T21:28:51.582Z</value>
				</time>
				<waveformID channelCode="CNZ" networkCode="PL" stationCode="DABR" />
				<onset>questionable</onset>
				<phaseHint>Pg</phaseHint>
				<polarity>undecidable</polarity>
			</pick>
			<pick publicID="smi:igf.edu.pl/dblumineos.igf.edu.pl#Pick153758">
				<time>
					<value>2017-05-15T21:28:51.811Z</value>
				</time>
				<waveformID channelCode="CNZ" networkCode="PL" stationCode="KOMR" />
				<onset>questionable</onset>
				<phaseHint>Pg</phaseHint>
				<polarity>undecidable</polarity>
			</pick>
			<pick publicID="smi:igf.edu.pl/dblumineos.igf.edu.pl#Pick153760">
				<time>
					<value>2017-05-15T21:28:51.679Z</value>
				</time>
				<waveformID channelCode="CNZ" networkCode="PL" stationCode="TRBC2" />
				<onset>questionable</onset>
				<phaseHint>Pg</phaseHint>
				<polarity>undecidable</polarity>
			</pick>
			<pick publicID="smi:igf.edu.pl/dblumineos.igf.edu.pl#Pick153762">
				<time>
					<value>2017-05-15T21:28:51.862Z</value>
				</time>
				<waveformID channelCode="EHZ" networkCode="PL" stationCode="TRN2" />
				<onset>questionable</onset>
				<phaseHint>Pg</phaseHint>
				<polarity>undecidable</polarity>
			</pick>
			<pick publicID="smi:igf.edu.pl/dblumineos.igf.edu.pl#Pick153764">
				<time>
					<value>2017-05-15T21:28:52.280Z</value>
				</time>
				<waveformID channelCode="EHZ" networkCode="PL" stationCode="ZMST" />
				<onset>questionable</onset>
				<phaseHint>Pg</phaseHint>
				<polarity>undecidable</polarity>
			</pick>
			<pick publicID="smi:igf.edu.pl/dblumineos.igf.edu.pl#Pick153766">
				<time>
					<value>2017-05-15T21:28:52.198Z</value>
				</time>
				<waveformID channelCode="EHZ" networkCode="PL" stationCode="ZUKW2" />
				<onset>questionable</onset>
				<phaseHint>Pg</phaseHint>
				<polarity>undecidable</polarity>
			</pick>
		</event>
		<event publicID="smi:igf.edu.pl/LGCD_CIBIS_808714">
			<preferredOriginID>smi:igf.edu.pl/SWIDB_at_dblumineos.igf.edu.pl#Origin808714</preferredOriginID>
			<origin publicID="smi:igf.edu.pl/SWIDB_at_dblumineos.igf.edu.pl#Origin808714">
				<time>
					<value>2021-12-09T02:28:11.852Z</value>
				</time>
				<latitude>
					<value>51.540794</value>
				</latitude>
				<longitude>
					<value>16.118479</value>
				</longitude>
				<depth>
					<value>0.619999988</value>
				</depth>
				<depthType>from location</depthType>
				<region>Lubin</region>
			</origin>
			<stationMagnitude publicID="smi:igf.edu.pl/dblumineos.igf.edu.pl#StaMagnitude605289">
				<mag>
					<value>0.9</value>
				</mag>
				<originID>smi:igf.edu.pl/SWIDB_at_dblumineos.igf.edu.pl#Origin808714</originID>
				<type>Mw</type>
				<waveformID networkCode="PL" stationCode="MOSK2" />
			</stationMagnitude>
			<stationMagnitude publicID="smi:igf.edu.pl/dblumineos.igf.edu.pl#StaMagnitude605294">
				<mag>
					<value>1</value>
				</mag>
				<originID>smi:igf.edu.pl/SWIDB_at_dblumineos.igf.edu.pl#Origin808714</originID>
				<type>Mw</type>
				<waveformID networkCode="PL" stationCode="DWOL" />
			</stationMagnitude>
			<spectralParameter publicID="smi:igf.edu.pl/spectralParameter_P_DWOL808714">
				<spectralLevel>
					<value>2.5e-005</value>
				</spectralLevel>
				<cornelFrequency>
					<value>2.58856</value>
				</cornelFrequency>
				<waveformID networkCode="PL" stationCode="DWOL" />
			</spectralParameter>
			<spectralParameter publicID="smi:igf.edu.pl/spectralParameter_P_MOSK2808714">
				<spectralLevel>
					<value>1.3e-005</value>
				</spectralLevel>
				<cornelFrequency>
					<value>8.0748</value>
				</cornelFrequency>
				<waveformID networkCode="PL" stationCode="MOSK2" />
			</spectralParameter>
			<spectralParameter publicID="smi:igf.edu.pl/spectralParameter_S_DWOL808714">
				<spectralLevel>
					<value>4.2e-005</value>
				</spectralLevel>
				<cornelFrequency>
					<value>1.46433</value>
				</cornelFrequency>
				<waveformID networkCode="PL" stationCode="DWOL" />
			</spectralParameter>
			<spectralParameter publicID="smi:igf.edu.pl/spectralParameter_S_MOSK2808714">
				<spectralLevel>
					<value>2.8e-005</value>
				</spectralLevel>
				<cornelFrequency>
					<value>1.13737</value>
				</cornelFrequency>
				<waveformID networkCode="PL" stationCode="MOSK2" />
			</spectralParameter>
			<pick publicID="smi:igf.edu.pl/dblumineos.igf.edu.pl#Pick340973">
				<time>
					<value>2021-12-09T02:28:12.724Z</value>
				</time>
				<waveformID channelCode="CNZ" networkCode="PL" stationCode="GUZI" />
				<onset>questionable</onset>
				<phaseHint>Pg</phaseHint>
				<polarity>undecidable</polarity>
			</pick>
			<pick publicID="smi:igf.edu.pl/dblumineos.igf.edu.pl#Pick340974">
				<time>
					<value>2021-12-09T02:28:12.873Z</value>
				</time>
				<waveformID channelCode="EHZ" networkCode="PL" stationCode="MOSK2" />
				<onset>questionable</onset>
				<phaseHint>Pg</phaseHint>
				<polarity>undecidable</polarity>
			</pick>
			<pick publicID="smi:igf.edu.pl/dblumineos.igf.edu.pl#Pick340976">
				<time>
					<value>2021-12-09T02:28:12.687Z</value>
				</time>
				<waveformID channelCode="EHZ" networkCode="PL" stationCode="ZUKW2" />
				<onset>questionable</onset>
				<phaseHint>Pg</phaseHint>
				<polarity>undecidable</polarity>
			</pick>
			<pick publicID="smi:igf.edu.pl/dblumineos.igf.edu.pl#Pick340977">
				<time>
					<value>2021-12-09T02:28:13.047Z</value>
				</time>
				<waveformID channelCode="EHZ" networkCode="PL" stationCode="DWOL" />
				<onset>questionable</onset>
				<phaseHint>Pg</phaseHint>
				<polarity>undecidable</polarity>
			</pick>
			<pick publicID="smi:igf.edu.pl/dblumineos.igf.edu.pl#Pick340979">
				<time>
					<value>2021-12-09T02:28:12.911Z</value>
				</time>
				<waveformID channelCode="CNZ" networkCode="PL" stationCode="TRBC2" />
				<onset>questionable</onset>
				<phaseHint>Pg</phaseHint>
				<polarity>undecidable</polarity>
			</pick>
		</event>
		<event publicID="smi:igf.edu.pl/LGCD_CIBIS_208646">
			<preferredOriginID>smi:igf.edu.pl/SWIDB_at_dblumineos.igf.edu.pl#Origin208646</preferredOriginID>
			<origin publicID="smi:igf.edu.pl/SWIDB_at_dblumineos.igf.edu.pl#Origin208646">
				<time>
					<value>2013-12-11T04:36:10.348Z</value>
				</time>
				<latitude>
					<value>51.503197</value>
				</latitude>
				<longitude>
					<value>16.13221</value>
				</longitude>
				<depth>
					<value>0.42</value>
				</depth>
				<depthType>from location</depthType>
				<region>Lubin</region>
			</origin>
			<stationMagnitude publicID="smi:igf.edu.pl/dblumineos.igf.edu.pl#StaMagnitude119086">
				<mag>
					<value>1.7</value>
				</mag>
				<originID>smi:igf.edu.pl/SWIDB_at_dblumineos.igf.edu.pl#Origin208646</originID>
				<type>Mw</type>
				<waveformID networkCode="PL" stationCode="MOSK" />
			</stationMagnitude>
			<stationMagnitude publicID="smi:igf.edu.pl/dblumineos.igf.edu.pl#StaMagnitude119091">
				<mag>
					<value>1.6</value>
				</mag>
				<originID>smi:igf.edu.pl/SWIDB_at_dblumineos.igf.edu.pl#Origin208646</originID>
				<type>Mw</type>
				<waveformID networkCode="PL" stationCode="PEKW" />
			</stationMagnitude>
			<stationMagnitude publicID="smi:igf.edu.pl/dblumineos.igf.edu.pl#StaMagnitude119096">
				<mag>
					<value>1.6</value>
				</mag>
				<originID>smi:igf.edu.pl/SWIDB_at_dblumineos.igf.edu.pl#Origin208646</originID>
				<type>Mw</type>
				<waveformID networkCode="PL" stationCode="TRBC" />
			</stationMagnitude>
			<stationMagnitude publicID="smi:igf.edu.pl/dblumineos.igf.edu.pl#StaMagnitude119101">
				<mag>
					<value>1.6</value>
				</mag>
				<originID>smi:igf.edu.pl/SWIDB_at_dblumineos.igf.edu.pl#Origin208646</originID>
				<type>Mw</type>
				<waveformID networkCode="PL" stationCode="TRNW" />
			</stationMagnitude>
			<stationMagnitude publicID="smi:igf.edu.pl/dblumineos.igf.edu.pl#StaMagnitude119106">
				<mag>
					<value>1.7</value>
				</mag>
				<originID>smi:igf.edu.pl/SWIDB_at_dblumineos.igf.edu.pl#Origin208646</originID>
				<type>Mw</type>
				<waveformID networkCode="PL" stationCode="ZUKW" />
			</stationMagnitude>
			<spectralParameter publicID="smi:igf.edu.pl/spectralParameter_P_MOSK208646">
				<spectralLevel>
					<value>7.4e-005</value>
				</spectralLevel>
				<cornelFrequency>
					<value>3.70077</value>
				</cornelFrequency>
				<waveformID networkCode="PL" stationCode="MOSK" />
			</spectralParameter>
			<spectralParameter publicID="smi:igf.edu.pl/spectralParameter_P_PEKW208646">
				<spectralLevel>
					<value>6.3e-005</value>
				</spectralLevel>
				<cornelFrequency>
					<value>3.86743</value>
				</cornelFrequency>
				<waveformID networkCode="PL" stationCode="PEKW" />
			</spectralParameter>
			<spectralParameter publicID="smi:igf.edu.pl/spectralParameter_P_TRBC208646">
				<spectralLevel>
					<value>6.8e-005</value>
				</spectralLevel>
				<cornelFrequency>
					<value>3.90677</value>
				</cornelFrequency>
				<waveformID networkCode="PL" stationCode="TRBC" />
			</spectralParameter>
			<spectralParameter publicID="smi:igf.edu.pl/spectralParameter_P_TRNW208646">
				<spectralLevel>
					<value>0.000154</value>
				</spectralLevel>
				<cornelFrequency>
					<value>2.65584</value>
				</cornelFrequency>
				<waveformID networkCode="PL" stationCode="TRNW" />
			</spectralParameter>
			<spectralParameter publicID="smi:igf.edu.pl/spectralParameter_P_ZUKW208646">
				<spectralLevel>
					<value>8.2e-005</value>
				</spectralLevel>
				<cornelFrequency>
					<value>4.09426</value>
				</cornelFrequency>
				<waveformID networkCode="PL" stationCode="ZUKW" />
			</spectralParameter>
			<spectralParameter publicID="smi:igf.edu.pl/spectralParameter_S_MOSK208646">
				<spectralLevel>
					<value>0.000459</value>
				</spectralLevel>
				<cornelFrequency>
					<value>4.26832</value>
				</cornelFrequency>
				<waveformID networkCode="PL" stationCode="MOSK" />
			</spectralParameter>
