<?xml version="1.0"?>
<q:quakeml xmlns="http://quakeml.org/xmlns/quakeml/1.2" xmlns:q="http://quakeml.org/xmlns/quakeml/1.2">
	<eventParameters publicID="smi:igf.edu.pl/Song_Tranh_2#eventParameters">
		<event publicID="smi:igf.edu.pl/Event601566">
			<preferredOriginID>smi:igf.edu.pl/Origin601566</preferredOriginID>
			<origin publicID="smi:igf.edu.pl/Origin601566">
				<time>
					<value>2015-03-01T16:20:17.904Z</value>
				</time>
				<latitude>
					<value>15.28687</value>
				</latitude>
				<longitude>
					<value>108.102272</value>
				</longitude>
				<depth>
					<value>0</value>
				</depth>
				<depthType>from location</depthType>
			</origin>
			<stationMagnitude publicID="smi:igf.edu.pl/dbveris.igf.edu.pl#StaMagnitude70523">
				<mag>
					<value>-0.275498</value>
				</mag>
				<originID>smi:igf.edu.pl/Origin601566</originID>
				<type>ML</type>
				<waveformID networkCode="VN" stationCode="TDVB" />
			</stationMagnitude>
			<stationMagnitude publicID="smi:igf.edu.pl/dbveris.igf.edu.pl#StaMagnitude70524">
				<mag>
					<value>-0.322542</value>
				</mag>
				<originID>smi:igf.edu.pl/Origin601566</originID>
				<type>ML</type>
				<waveformID networkCode="VN" stationCode="TBVB" />
			</stationMagnitude>
			<stationMagnitude publicID="smi:igf.edu.pl/dbveris.igf.edu.pl#StaMagnitude70525">
				<mag>
					<value>-0.119845</value>
				</mag>
				<originID>smi:igf.edu.pl/Origin601566</originID>
				<type>ML</type>
				<waveformID networkCode="VN" stationCode="TLE" />
			</stationMagnitude>
			<pick publicID="smi:igf.edu.pl/Pick111325">
				<time>
					<value>2015-03-01T16:20:19.306Z</value>
				</time>
				<waveformID channelCode="HHZ" networkCode="VN" stationCode="TDVB" />
				<onset>questionable</onset>
				<phaseHint>Pg</phaseHint>
				<polarity>undecidable</polarity>
			</pick>
			<pick publicID="smi:igf.edu.pl/Pick111326">
				<time>
					<value>2015-03-01T16:20:20.347Z</value>
				</time>
				<waveformID channelCode="HHN" networkCode="VN" stationCode="TDVB" />
				<onset>questionable</onset>
				<phaseHint>Sg</phaseHint>
				<polarity>undecidable</polarity>
			</pick>
			<pick publicID="smi:igf.edu.pl/Pick111327">
				<time>
					<value>2015-03-01T16:20:19.674Z</value>
				</time>
				<waveformID channelCode="HHZ" networkCode="VN" stationCode="TBVB" />
				<onset>questionable</onset>
				<phaseHint>Pg</phaseHint>
				<polarity>undecidable</polarity>
			</pick>
			<pick publicID="smi:igf.edu.pl/Pick111328">
				<time>
					<value>2015-03-01T16:20:20.938Z</value>
				</time>
				<waveformID channelCode="HHN" networkCode="VN" stationCode="TBVB" />
				<onset>questionable</onset>
				<phaseHint>Sg</phaseHint>
				<polarity>undecidable</polarity>
			</pick>
			<pick publicID="smi:igf.edu.pl/Pick111329">
				<time>
					<value>2015-03-01T16:20:19.363Z</value>
				</time>
				<waveformID channelCode="HHZ" networkCode="VN" stationCode="TLE" />
				<onset>questionable</onset>
				<phaseHint>Pg</phaseHint>
				<polarity>undecidable</polarity>
			</pick>
			<pick publicID="smi:igf.edu.pl/Pick111330">
				<time>
					<value>2015-03-01T16:20:20.440Z</value>
				</time>
				<waveformID channelCode="HHN" networkCode="VN" stationCode="TLE" />
				<onset>questionable</onset>
				<phaseHint>Sg</phaseHint>
				<polarity>undecidable</polarity>
			</pick>
		</event>
		<event publicID="smi:igf.edu.pl/Event601665">
			<preferredOriginID>smi:igf.edu.pl/Origin601665</preferredOriginID>
			<origin publicID="smi:igf.edu.pl/Origin601665">
				<time>
					<value>2015-03-03T20:43:01.987Z</value>
				</time>
				<latitude>
					<value>15.252592</value>
				</latitude>
				<longitude>
					<value>108.110931</value>
				</longitude>
				<depth>
					<value>0.607532144</value>
				</depth>
				<depthType>from location</depthType>
			</origin>
			<stationMagnitude publicID="smi:igf.edu.pl/dbveris.igf.edu.pl#StaMagnitude50483">
				<mag>
					<value>-0.168153</value>
				</mag>
				<originID>smi:igf.edu.pl/Origin601665</originID>
				<type>ML</type>
				<waveformID networkCode="VN" stationCode="TDVB" />
			</stationMagnitude>
			<stationMagnitude publicID="smi:igf.edu.pl/dbveris.igf.edu.pl#StaMagnitude50484">
				<mag>
					<value>-0.252098</value>
				</mag>
				<originID>smi:igf.edu.pl/Origin601665</originID>
				<type>ML</type>
				<waveformID networkCode="VN" stationCode="TLE" />
			</stationMagnitude>
			<stationMagnitude publicID="smi:igf.edu.pl/dbveris.igf.edu.pl#StaMagnitude50485">
				<mag>
					<value>-0.263515</value>
				</mag>
				<originID>smi:igf.edu.pl/Origin601665</originID>
				<type>ML</type>
				<waveformID networkCode="VN" stationCode="TMVB" />
			</stationMagnitude>
			<pick publicID="smi:igf.edu.pl/Pick83846">
				<time>
					<value>2015-03-03T20:43:03.863Z</value>
				</time>
				<waveformID channelCode="HHZ" networkCode="VN" stationCode="TDVB" />
				<onset>questionable</onset>
				<phaseHint>Pg</phaseHint>
				<polarity>undecidable</polarity>
			</pick>
			<pick publicID="smi:igf.edu.pl/Pick83847">
				<time>
					<value>2015-03-03T20:43:05.201Z</value>
				</time>
				<waveformID channelCode="HHN" networkCode="VN" stationCode="TDVB" />
				<onset>questionable</onset>
				<phaseHint>Sg</phaseHint>
				<polarity>undecidable</polarity>
			</pick>
			<pick publicID="smi:igf.edu.pl/Pick83848">
				<time>
					<value>2015-03-03T20:43:03.687Z</value>
				</time>
				<waveformID channelCode="HHZ" networkCode="VN" stationCode="TLE" />
				<onset>questionable</onset>
				<phaseHint>Pg</phaseHint>
				<polarity>undecidable</polarity>
			</pick>
			<pick publicID="smi:igf.edu.pl/Pick83849">
				<time>
					<value>2015-03-03T20:43:04.958Z</value>
				</time>
				<waveformID channelCode="HHN" networkCode="VN" stationCode="TLE" />
				<onset>questionable</onset>
				<phaseHint>Sg</phaseHint>
				<polarity>undecidable</polarity>
			</pick>
			<pick publicID="smi:igf.edu.pl/Pick83850">
				<time>
					<value>2015-03-03T20:43:04.008Z</value>
				</time>
				<waveformID channelCode="HHZ" networkCode="VN" stationCode="TMVB" />
				<onset>questionable</onset>
				<phaseHint>Pg</phaseHint>
				<polarity>undecidable</polarity>
			</pick>
			<pick publicID="smi:igf.edu.pl/Pick83851">
				<time>
					<value>2015-03-03T20:43:05.486Z</value>
				</time>
				<waveformID channelCode="HHE" networkCode="VN" stationCode="TMVB" />
				<onset>questionable</onset>
				<phaseHint>Sg</phaseHint>
				<polarity>undecidable</polarity>
			</pick>
		</event>
		<event publicID="smi:igf.edu.pl/b9f92bdb-9e32-40bd-b965-ea5a0b080b84#event_65608ac9">
			<preferredOriginID>smi:igf.edu.pl/ce056a04-77df-47f6-811d-104e44ac8491#origin_65608af4</preferredOriginID>
			<origin publicID="smi:igf.edu.pl/ce056a04-77df-47f6-811d-104e44ac8491#origin_65608af4">
				<time>
					<value>2018-01-14T16:59:53.138Z</value>
					<uncertainty>0.26007822156</uncertainty>
				</time>
				<latitude>
					<value>15.3532018661</value>
				</latitude>
				<longitude>
					<value>108.116439819</value>
				</longitude>
				<depth>
					<value>1.30222988129e+003</value>
					<confidenceLevel>185.026715743</confidenceLevel>
					<uncertainty>2.40947318077</uncertainty>
				</depth>
				<depthType>from location</depthType>
				<earthModelID>smi:igf.edu.pl/LocSAT_STH2</earthModelID>
				<methodID>smi:igf.edu.pl/LocSAT</methodID>
				<quality>
					<usedPhaseCount>6</usedPhaseCount>
					<usedStationCount>3</usedStationCount>
				</quality>
				<originUncertainty>
					<azimuthMaxHorizontalUncertainty>112.366287231</azimuthMaxHorizontalUncertainty>
					<horizontalUncertainty>1381.07609749</horizontalUncertainty>
					<maxHorizontalUncertainty>1381.07609749</maxHorizontalUncertainty>
					<minHorizontalUncertainty>465.990811586</minHorizontalUncertainty>
					<preferredDescription>uncertainty ellipse</preferredDescription>
				</originUncertainty>
				<arrival publicID="smi:igf.edu.pl/08378d4f-5d2c-4b19-a4f9-60450d471001#arrival_65608af3">
					<phase>Sg</phase>
					<pickID>smi:igf.edu.pl/17af58d5-afe5-4682-9494-4552ea7b631f#pick_65608ade</pickID>
					<azimuth>153.09236145</azimuth>
					<distance>0.126214906573</distance>
					<timeResidual>-0.0244524478912</timeResidual>
				</arrival>
				<arrival publicID="smi:igf.edu.pl/04afd0b9-59c3-4427-948d-0c1cc31f780d#arrival_65608af3">
					<phase>Pg</phase>
					<pickID>smi:igf.edu.pl/6443992c-8cbc-4fe9-b78d-0a788975ce77#pick_65608aec</pickID>
					<azimuth>9.70611716e-011</azimuth>
					<distance>7.29597077198e-011</distance>
					<timeResidual>-0.0574548244476</timeResidual>
				</arrival>
				<arrival publicID="smi:igf.edu.pl/57fa941f-0da7-46cd-8344-21790da17c88#arrival_65608af3">
					<phase>Sg</phase>
					<pickID>smi:igf.edu.pl/90663526-d602-4ad3-8bdf-0fc21f5c8c9a#pick_65608ae7</pickID>
					<azimuth>1.59748024933e-043</azimuth>
					<distance>0</distance>
					<timeResidual>-0.0087525844574</timeResidual>
				</arrival>
				<arrival publicID="smi:igf.edu.pl/c7436733-6339-4bdc-8189-39531f3f9d39#arrival_65608af3">
					<phase>Pg</phase>
					<pickID>smi:igf.edu.pl/c88c9ed5-fb67-4a42-b03a-eccbdff21e27#pick_65608ad9</pickID>
					<azimuth>195.567504883</azimuth>
					<distance>0.113550044596</distance>
					<timeResidual>0.0422868728638</timeResidual>
				</arrival>
				<arrival publicID="smi:igf.edu.pl/e894850f-4caa-4ee8-9342-6883fd96c04c#arrival_65608af3">
					<phase>Pg</phase>
					<pickID>smi:igf.edu.pl/d7a7c7ee-4701-4191-8550-71acdacbff46#pick_65608ae3</pickID>
					<azimuth>42.0399513245</azimuth>
					<distance>0.125820562243</distance>
					<timeResidual>0.0151896476746</timeResidual>
				</arrival>
				<arrival publicID="smi:igf.edu.pl/487afd5d-5fdd-4316-8cbe-9615c53a5ee7#arrival_65608af3">
					<phase>Sg</phase>
					<pickID>smi:igf.edu.pl/e34b8db8-3b02-46f4-a9a9-f7fcccf1f41d#pick_65608af0</pickID>
					<azimuth>-8.60957776481e-042</azimuth>
					<distance>0</distance>
					<timeResidual>0.0332405567169</timeResidual>
				</arrival>
			</origin>
			<magnitude publicID="smi:igf.edu.pl/580e1618-0ba9-4419-af3a-ee56efcbeb53#magnitude_65608aff">
				<mag>
					<value>1.67084746721</value>
				</mag>
				<methodID>smi:igf.edu.pl/Richter#WASimulation</methodID>
				<originID>smi:igf.edu.pl/ce056a04-77df-47f6-811d-104e44ac8491#origin_65608af4</originID>
				<stationCount>3</stationCount>
				<type>ML</type>
				<stationMagnitudeContribution>
					<stationMagnitudeID>smi:igf.edu.pl/4b758e87-adc3-40b5-a43f-ba92c72f4ecf#stationMagnitude_65608aff</stationMagnitudeID>
					<weight>1</weight>
				</stationMagnitudeContribution>
				<stationMagnitudeContribution>
					<stationMagnitudeID>smi:igf.edu.pl/4c93f819-62ca-4be0-89db-8115e4bf8b86#stationMagnitude_65608aff</stationMagnitudeID>
					<weight>1</weight>
				</stationMagnitudeContribution>
				<stationMagnitudeContribution>
					<stationMagnitudeID>smi:igf.edu.pl/4d0a26a0-0be3-4635-a37f-e177c2d17130#stationMagnitude_65608aff</stationMagnitudeID>
					<weight>1</weight>
				</stationMagnitudeContribution>
			</magnitude>
			<stationMagnitude publicID="smi:igf.edu.pl/4b758e87-adc3-40b5-a43f-ba92c72f4ecf#stationMagnitude_65608aff">
				<comment>
					<text>SWIP5 plugin: MLPlugin v. 1</text>
				</comment>
				<comment>
					<text>Amplitude method: Squere root of squeres</text>
				</comment>
				<comment>
					<text>Magnitude method: Richter 1958 - correction table </text>
				</comment>
				<mag>
					<value>1.38074767373</value>
				</mag>
				<amplitudeID>smi:igf.edu.pl/38ae5e63-7aa2-470f-95bc-24cedb0e8bef#amplitude_65608aff</amplitudeID>
				<amplitudeID>smi:igf.edu.pl/4e18045d-37e1-4f56-92ec-e90eebb08c50#amplitude_65608aff</amplitudeID>
				<amplitudeID>smi:igf.edu.pl/e983246c-796d-4d3b-a0a8-5cabb7e4fc12#amplitude_65608aff</amplitudeID>
				<methodID>smi:igf.edu.pl/Richter#WASimulation</methodID>
				<originID>smi:igf.edu.pl/ce056a04-77df-47f6-811d-104e44ac8491#origin_65608af4</originID>
				<type>ML</type>
				<waveformID channelCode="EHN" networkCode="VN" stationCode="TNG" />
			</stationMagnitude>
			<stationMagnitude publicID="smi:igf.edu.pl/4c93f819-62ca-4be0-89db-8115e4bf8b86#stationMagnitude_65608aff">
				<comment>
					<text>SWIP5 plugin: MLPlugin v. 1</text>
				</comment>
				<comment>
					<text>Amplitude method: Squere root of squeres</text>
				</comment>
				<comment>
					<text>Magnitude method: Richter 1958 - correction table </text>
				</comment>
				<mag>
					<value>1.47214145029</value>
				</mag>
				<amplitudeID>smi:igf.edu.pl/34f136d3-bef2-4beb-93cb-24cf691c5c95#amplitude_65608aff</amplitudeID>
				<amplitudeID>smi:igf.edu.pl/45fe5e33-d447-43db-b2e4-51a7bcb735fc#amplitude_65608aff</amplitudeID>
				<amplitudeID>smi:igf.edu.pl/6c9c0d85-5d08-4031-921e-8d94f7a73b07#amplitude_65608aff</amplitudeID>
				<methodID>smi:igf.edu.pl/Richter#WASimulation</methodID>
				<originID>smi:igf.edu.pl/ce056a04-77df-47f6-811d-104e44ac8491#origin_65608af4</originID>
				<type>ML</type>
				<waveformID channelCode="HHE" networkCode="VN" stationCode="TGI" />
			</stationMagnitude>
			<stationMagnitude publicID="smi:igf.edu.pl/4d0a26a0-0be3-4635-a37f-e177c2d17130#stationMagnitude_65608aff">
				<comment>
					<text>SWIP5 plugin: MLPlugin v. 1</text>
				</comment>
				<comment>
					<text>Amplitude method: Squere root of squeres</text>
				</comment>
				<comment>
					<text>Magnitude method: Richter 1958 - correction table </text>
				</comment>
				<mag>
					<value>2.15965327762</value>
				</mag>
				<amplitudeID>smi:igf.edu.pl/0e383f5c-960d-47be-8082-091cc94a6762#amplitude_65608aff</amplitudeID>
				<amplitudeID>smi:igf.edu.pl/211f5699-0ebb-43cb-a310-9fab3e2660ee#amplitude_65608aff</amplitudeID>
				<amplitudeID>smi:igf.edu.pl/98f7d7dd-0191-4baa-b503-3c8101a6659c#amplitude_65608aff</amplitudeID>
				<methodID>smi:igf.edu.pl/Richter#WASimulation</methodID>
				<originID>smi:igf.edu.pl/ce056a04-77df-47f6-811d-104e44ac8491#origin_65608af4</originID>
				<type>ML</type>
				<waveformID channelCode="HHE" networkCode="VN" stationCode="TDO" />
			</stationMagnitude>
			<amplitude publicID="smi:igf.edu.pl/0e383f5c-960d-47be-8082-091cc94a6762#amplitude_65608aff">
				<filterID>smi:igf.edu.pl/WOOD-ANDERSON_SIMULATION</filterID>
				<genericAmplitude>
					<value>0.00273836264387</value>
				</genericAmplitude>
				<pickID>smi:igf.edu.pl/17af58d5-afe5-4682-9494-4552ea7b631f#pick_65608ade</pickID>
				<timeWindow>
					<begin>0</begin>
					<end>0.0799999237061</end>
					<reference>2018-01-14T16:59:57.230Z</reference>
				</timeWindow>
				<unit>m</unit>
				<waveformID channelCode="HHE" networkCode="VN" stationCode="TDO" />
			</amplitude>
			<amplitude publicID="smi:igf.edu.pl/211f5699-0ebb-43cb-a310-9fab3e2660ee#amplitude_65608aff">
				<filterID>smi:igf.edu.pl/WOOD-ANDERSON_SIMULATION</filterID>
				<genericAmplitude>
					<value>0.00206761597656</value>
				</genericAmplitude>
				<pickID>smi:igf.edu.pl/17af58d5-afe5-4682-9494-4552ea7b631f#pick_65608ade</pickID>
				<timeWindow>
					<begin>0</begin>
					<end>0.100000143051</end>
					<reference>2018-01-14T16:59:57.100Z</reference>
				</timeWindow>
				<unit>m</unit>
				<waveformID channelCode="HHE" networkCode="VN" stationCode="TDO" />
			</amplitude>
			<amplitude publicID="smi:igf.edu.pl/34f136d3-bef2-4beb-93cb-24cf691c5c95#amplitude_65608aff">
				<filterID>smi:igf.edu.pl/WOOD-ANDERSON_SIMULATION</filterID>
				<genericAmplitude>
					<value>0.000329083501128</value>
				</genericAmplitude>
				<pickID>smi:igf.edu.pl/90663526-d602-4ad3-8bdf-0fc21f5c8c9a#pick_65608ae7</pickID>
				<timeWindow>
					<begin>0</begin>
					<end>0.139999866486</end>
					<reference>2018-01-14T16:59:57.690Z</reference>
				</timeWindow>
				<unit>m</unit>
				<waveformID channelCode="HHE" networkCode="VN" stationCode="TGI" />
			</amplitude>
			<amplitude publicID="smi:igf.edu.pl/38ae5e63-7aa2-470f-95bc-24cedb0e8bef#amplitude_65608aff">
				<filterID>smi:igf.edu.pl/WOOD-ANDERSON_SIMULATION</filterID>
				<genericAmplitude>
					<value>0.000259647786152</value>
				</genericAmplitude>
				<pickID>smi:igf.edu.pl/e34b8db8-3b02-46f4-a9a9-f7fcccf1f41d#pick_65608af0</pickID>
				<timeWindow>
					<begin>0</begin>
					<end>0.210000038147</end>
					<reference>2018-01-14T16:59:57.560Z</reference>
				</timeWindow>
				<unit>m</unit>
				<waveformID channelCode="EHN" networkCode="VN" stationCode="TNG" />
			</amplitude>
			<amplitude publicID="smi:igf.edu.pl/45fe5e33-d447-43db-b2e4-51a7bcb735fc#amplitude_65608aff">
				<filterID>smi:igf.edu.pl/WOOD-ANDERSON_SIMULATION</filterID>
				<genericAmplitude>
					<value>0.00054965459276</value>
				</genericAmplitude>
				<pickID>smi:igf.edu.pl/90663526-d602-4ad3-8bdf-0fc21f5c8c9a#pick_65608ae7</pickID>
				<timeWindow>
					<begin>0</begin>
					<end>0.039999961853</end>
					<reference>2018-01-14T16:59:57.680Z</reference>
				</timeWindow>
				<unit>m</unit>
				<waveformID channelCode="HHE" networkCode="VN" stationCode="TGI" />
			</amplitude>
			<amplitude publicID="smi:igf.edu.pl/4e18045d-37e1-4f56-92ec-e90eebb08c50#amplitude_65608aff">
				<filterID>smi:igf.edu.pl/WOOD-ANDERSON_SIMULATION</filterID>
				<genericAmplitude>
					<value>0.000633430317976</value>
				</genericAmplitude>
				<pickID>smi:igf.edu.pl/e34b8db8-3b02-46f4-a9a9-f7fcccf1f41d#pick_65608af0</pickID>
				<timeWindow>
					<begin>0</begin>
					<end>0.150000095367</end>
					<reference>2018-01-14T16:59:57.500Z</reference>
				</timeWindow>
				<unit>m</unit>
				<waveformID channelCode="EHN" networkCode="VN" stationCode="TNG" />
			</amplitude>
			<amplitude publicID="smi:igf.edu.pl/6c9c0d85-5d08-4031-921e-8d94f7a73b07#amplitude_65608aff">
				<filterID>smi:igf.edu.pl/WOOD-ANDERSON_SIMULATION</filterID>
				<genericAmplitude>
					<value>0.000735927780624</value>
				</genericAmplitude>
				<pickID>smi:igf.edu.pl/90663526-d602-4ad3-8bdf-0fc21f5c8c9a#pick_65608ae7</pickID>
				<timeWindow>
					<begin>0</begin>
					<end>0.0799999237061</end>
					<reference>2018-01-14T16:59:57.670Z</reference>
				</timeWindow>
				<unit>m</unit>
				<waveformID channelCode="HHE" networkCode="VN" stationCode="TGI" />
			</amplitude>
			<amplitude publicID="smi:igf.edu.pl/98f7d7dd-0191-4baa-b503-3c8101a6659c#amplitude_65608aff">
				<filterID>smi:igf.edu.pl/WOOD-ANDERSON_SIMULATION</filterID>
				<genericAmplitude>
					<value>0.00373487384059</value>
				</genericAmplitude>
				<pickID>smi:igf.edu.pl/17af58d5-afe5-4682-9494-4552ea7b631f#pick_65608ade</pickID>
				<timeWindow>
					<begin>0</begin>
					<end>0.0799999237061</end>
					<reference>2018-01-14T16:59:57.140Z</reference>
				</timeWindow>
				<unit>m</unit>
				<waveformID channelCode="HHE" networkCode="VN" stationCode="TDO" />
			</amplitude>
			<amplitude publicID="smi:igf.edu.pl/e983246c-796d-4d3b-a0a8-5cabb7e4fc12#amplitude_65608aff">
				<filterID>smi:igf.edu.pl/WOOD-ANDERSON_SIMULATION</filterID>
				<genericAmplitude>
					<value>0.000400328804972</value>
				</genericAmplitude>
				<pickID>smi:igf.edu.pl/e34b8db8-3b02-46f4-a9a9-f7fcccf1f41d#pick_65608af0</pickID>
				<timeWindow>
					<begin>0</begin>
					<end>0.139999866486</end>
					<reference>2018-01-14T16:59:57.470Z</reference>
				</timeWindow>
				<unit>m</unit>
				<waveformID channelCode="EHN" networkCode="VN" stationCode="TNG" />
			</amplitude>
			<pick publicID="smi:igf.edu.pl/17af58d5-afe5-4682-9494-4552ea7b631f#pick_65608ade">
				<time>
					<value>2018-01-14T16:59:57.006Z</value>
				</time>
				<waveformID channelCode="HHE" networkCode="VN" stationCode="TDO" />
				<onset>emergent</onset>
				<phaseHint>Sg</phaseHint>
				<polarity>undecidable</polarity>
			</pick>
			<pick publicID="smi:igf.edu.pl/6443992c-8cbc-4fe9-b78d-0a788975ce77#pick_65608aec">
				<time>
					<value>2018-01-14T16:59:55.549Z</value>
				</time>
				<waveformID channelCode="EHZ" networkCode="VN" stationCode="TNG" />
				<onset>emergent</onset>
				<phaseHint>Pg</phaseHint>
				<polarity>undecidable</polarity>
			</pick>
			<pick publicID="smi:igf.edu.pl/90663526-d602-4ad3-8bdf-0fc21f5c8c9a#pick_65608ae7">
				<time>
